INTELSAT 21 (IS-21)     
1 38749U 12045A   26169.17051178 -.00000291  00000+0  00000+0 0  9998
2 38749   0.0178  10.7728 0001418  96.2699 162.7447  1.00269894 50532
INTELSAT 23 (IS-23)     
1 38867U 12057A   26169.14401693 -.00000291  00000+0  00000+0 0  9990
2 38867   0.0125 315.0978 0000168  61.7155 248.4125  1.00267648 49963
FM-6                    
1 39360U 13058A   26168.46919677  .00000000  00000+0  00000+0 0  9998
2 39360   0.0312  44.0420 0002221 130.9080 143.3512  1.00264299 46070
INTELSAT 30 (IS-30)     
1 40271U 14062A   26168.32405734 -.00000155  00000+0  00000+0 0  9998
2 40271   0.0268  50.1227 0001219 328.9119 268.1517  1.00270102  6790
DIRECTV 14              
1 40333U 14078B   26168.97879149 -.00000131  00000+0  00000+0 0  9994
2 40333   0.0098  23.1294 0000435 292.0243 204.1979  1.00271608 42055
DIRECTV 15              
1 40663U 15026A   26169.29870812 -.00000108  00000+0  00000+0 0  9992
2 40663   0.0135  51.7217 0000373 270.4389 309.0199  1.00267860 40475
SKY MEXICO-1            
1 40664U 15026B   26169.11967057 -.00000240  00000+0  00000+0 0  9999
2 40664   0.0142  31.3680 0002097  76.6362 122.6309  1.00269982 40462
INTELSAT 34 (IS-34)     
1 40874U 15039A   26169.24588336 -.00000291  00000+0  00000+0 0  9995
2 40874   0.0097   2.3662 0000419 325.9553 331.1903  1.00269482 39640
INTELSAT 31 (IS-31)     
1 41581U 16035A   26168.94930152 -.00000156  00000+0  00000+0 0  9991
2 41581   0.0157 293.1897 0001055 323.4663 256.2281  1.00269698 36692
INTELSAT 36 (IS-36)     
1 41747U 16053A   26169.12429111 -.00000030  00000+0  00000+0 0  9995
2 41747   0.0140  16.5406 0002145 317.0633  46.0013  1.00271118 35965
INTELSAT 32E (IS-32E)   
1 41945U 17007B   26169.17345847 -.00000275  00000+0  00000+0 0  9994
2 41945   0.0171   9.3594 0000600 296.7993 339.5113  1.00268949 34231
INTELSAT 35E (IS-35E)   
1 42818U 17041A   26168.67612764  .00000000  00000+0  00000+0 0  9996
2 42818   0.0204   1.0645 0001683  79.9055  33.8532  1.00266508 32827
INTELSAT 37E (IS-37E)   
1 42950U 17059A   26169.17839850  .00000000  00000+0  00000+0 0  9995
2 42950   0.0209  11.6778 0002560 100.5457 200.4430  1.00269247 32074
AZERSPACE 2 (IS-38)     
1 43632U 18074A   26169.19087855  .00000131  00000+0  00000+0 0  9998
2 43632   0.0181   9.7156 0001276  79.0776 291.4569  1.00271278 28453
HORIZONS-3E             
1 43633U 18074B   26168.71640351 -.00000036  00000+0  00000+0 0  9997
2 43633   0.0021 233.5565 0000869  40.2741  59.0407  1.00270832 28349
AT&T T-16               
1 44333U 19034A   26168.59164146 -.00000120  00000+0  00000+0 0  9995
2 44333   0.0252  66.2499 0000771 211.2042 100.5032  1.00268538 25631
INTELSAT 39 (IS-39)     
1 44476U 19049B   26169.19425858  .00000028  00000+0  00000+0 0  9992
2 44476   0.0173 350.8683 0000899 330.6884  76.7566  1.00270830 25138
GALAXY 30 (G-30)        
1 46114U 20056C   26169.01466520  .00000031  00000+0  00000+0 0  9999
2 46114   0.0152  53.7844 0002139  33.3980  59.3498  1.00271591 21308
GALAXY 33 (G-33)        
1 54026U 22128A   26169.01310519  .00000073  00000+0  00000+0 0  9994
2 54026   0.0150  35.8889 0001650  52.5025  49.5933  1.00272433 13758
GALAXY 34 (G-34)        
1 54027U 22128B   26168.72862358  .00000053  00000+0  00000+0 0  9993
2 54027   0.0148  14.9716 0001609  90.3282 293.9894  1.00277403 13913
GALAXY 31 (G-31)        
1 54243U 22153A   26169.30059131  .00000007  00000+0  00000+0 0  9992
2 54243   0.0157  71.4585 0001076   6.5690 175.7121  1.00271469  7149
GALAXY 32 (G-32)        
1 54244U 22153B   26169.25430528 -.00000180  00000+0  00000+0 0  9993
2 54244   0.0102  22.6295 0002065  11.5608 232.8558  1.00271730 13158
GALAXY 35 (G-35)        
1 54741U 22170A   26169.25331361 -.00000168  00000+0  00000+0 0  9995
2 54741   0.0145  39.9581 0001792  44.0063 180.6091  1.00271934 12908
GALAXY 36 (G-36)        
1 54742U 22170B   26169.13572639 -.00000191  00000+0  00000+0 0  9994
2 54742   0.0101 300.3110 0002562 144.8983 141.0243  1.00270104 12784
GALAXY 37 (G-37)        
1 57493U 23112A   26169.29937797  .00000042  00000+0  00000+0 0  9998
2 57493   0.0186 335.9148 0001785 105.3650 166.0391  1.00272505 10558
