OBJECT_NAME,OBJECT_ID,EPOCH,MEAN_MOTION,ECCENTRICITY,INCLINATION,RA_OF_ASC_NODE,ARG_OF_PERICENTER,MEAN_ANOMALY,EPHEMERIS_TYPE,CLASSIFICATION_TYPE,NORAD_CAT_ID,ELEMENT_SET_NO,REV_AT_EPOCH,BSTAR,MEAN_MOTION_DOT,MEAN_MOTION_DDOT
INTELSAT 21 (IS-21),2012-045A,2026-06-18T04:05:32.217792,1.00269894,.00014182,0.0178,10.7728,96.2699,162.7447,0,U,38749,999,5053,0,-.291E-5,0
INTELSAT 23 (IS-23),2012-057A,2026-06-18T03:27:23.062752,1.00267648,.00001689,0.0125,315.0978,61.7155,248.4125,0,U,38867,999,4996,0,-.291E-5,0
FM-6,2013-058A,2026-06-17T11:15:38.600928,1.00264299,.00022215,0.0312,44.0420,130.9080,143.3512,0,U,39360,999,4607,0,0,0
INTELSAT 30 (IS-30),2014-062A,2026-06-17T07:46:38.554176,1.00270102,.0001219,0.0268,50.1227,328.9119,268.1517,0,U,40271,999,679,0,-.155E-5,0
DIRECTV 14,2014-078B,2026-06-17T23:29:27.584736,1.00271608,.00004358,0.0098,23.1294,292.0243,204.1979,0,U,40333,999,4205,0,-.131E-5,0
DIRECTV 15,2015-026A,2026-06-18T07:10:08.381568,1.00267860,.00003738,0.0135,51.7217,270.4389,309.0199,0,U,40663,999,4047,0,-.108E-5,0
SKY MEXICO-1,2015-026B,2026-06-18T02:52:19.537248,1.00269982,.00020972,0.0142,31.3680,76.6362,122.6309,0,U,40664,999,4046,0,-.24E-5,0
INTELSAT 34 (IS-34),2015-039A,2026-06-18T05:54:04.322304,1.00269482,.00004199,0.0097,2.3662,325.9553,331.1903,0,U,40874,999,3964,0,-.291E-5,0
INTELSAT 31 (IS-31),2016-035A,2026-06-17T22:46:59.651328,1.00269698,.00010557,0.0157,293.1897,323.4663,256.2281,0,U,41581,999,3669,0,-.156E-5,0
INTELSAT 36 (IS-36),2016-053A,2026-06-18T02:58:58.751904,1.00271118,.00021459,0.0140,16.5406,317.0633,46.0013,0,U,41747,999,3596,0,-.3E-6,0
INTELSAT 32E (IS-32E),2017-007B,2026-06-18T04:09:46.811808,1.00268949,.00006,0.0171,9.3594,296.7993,339.5113,0,U,41945,999,3423,0,-.275E-5,0
INTELSAT 35E (IS-35E),2017-041A,2026-06-17T16:13:37.428096,1.00266508,.00016834,0.0204,1.0645,79.9055,33.8532,0,U,42818,999,3282,0,0,0
INTELSAT 37E (IS-37E),2017-059A,2026-06-18T04:16:53.630400,1.00269247,.00025608,0.0209,11.6778,100.5457,200.4430,0,U,42950,999,3207,0,0,0
AZERSPACE 2 (IS-38),2018-074A,2026-06-18T04:34:51.906720,1.00271278,.0001276,0.0181,9.7156,79.0776,291.4569,0,U,43632,999,2845,0,.131E-5,0
HORIZONS-3E,2018-074B,2026-06-17T17:11:37.263264,1.00270832,.00008695,0.0021,233.5565,40.2741,59.0407,0,U,43633,999,2834,0,-.36E-6,0
AT&T T-16,2019-034A,2026-06-17T14:11:57.822144,1.00268538,.00007716,0.0252,66.2499,211.2042,100.5032,0,U,44333,999,2563,0,-.12E-5,0
INTELSAT 39 (IS-39),2019-049B,2026-06-18T04:39:43.941312,1.00270830,.00008996,0.0173,350.8683,330.6884,76.7566,0,U,44476,999,2513,0,.28E-6,0
GALAXY 30 (G-30),2020-056C,2026-06-18T00:21:07.073280,1.00271591,.00021396,0.0152,53.7844,33.3980,59.3498,0,U,46114,999,2130,0,.31E-6,0
GALAXY 33 (G-33),2022-128A,2026-06-18T00:18:52.288416,1.00272433,.00016506,0.0150,35.8889,52.5025,49.5933,0,U,54026,999,1375,0,.73E-6,0
GALAXY 34 (G-34),2022-128B,2026-06-17T17:29:13.077312,1.00277403,.00016095,0.0148,14.9716,90.3282,293.9894,0,U,54027,999,1391,0,.53E-6,0
GALAXY 31 (G-31),2022-153A,2026-06-18T07:12:51.089184,1.00271469,.00010763,0.0157,71.4585,6.5690,175.7121,0,U,54243,999,714,0,.7E-7,0
GALAXY 32 (G-32),2022-153B,2026-06-18T06:06:11.976192,1.00271730,.0002065,0.0102,22.6295,11.5608,232.8558,0,U,54244,999,1315,0,-.18E-5,0
GALAXY 35 (G-35),2022-170A,2026-06-18T06:04:46.295904,1.00271934,.00017926,0.0145,39.9581,44.0063,180.6091,0,U,54741,999,1290,0,-.168E-5,0
GALAXY 36 (G-36),2022-170B,2026-06-18T03:15:26.760096,1.00270104,.00025621,0.0101,300.3110,144.8983,141.0243,0,U,54742,999,1278,0,-.191E-5,0
GALAXY 37 (G-37),2023-112A,2026-06-18T07:11:06.256608,1.00272505,.00017855,0.0186,335.9148,105.3650,166.0391,0,U,57493,999,1055,0,.42E-6,0
